[{"OBJECT_NAME":"ONEWEB-0568","OBJECT_ID":"2023-043S","EPOCH":"2026-03-09T21:51:42.086592","MEAN_MOTION":13.16596168,"ECCENTRICITY":0.00015778,"INCLINATION":87.9005,"RA_OF_ASC_NODE":248.5169,"ARG_OF_PERICENTER":85.4032,"MEAN_ANOMALY":274.7279,"EPHEMERIS_TYPE":0,"CLASSIFICATION_TYPE":"U","NORAD_CAT_ID":56062,"ELEMENT_SET_NO":999,"REV_AT_EPOCH":14591,"BSTAR":-0.00024599621,"MEAN_MOTION_DOT":-8.1e-7,"MEAN_MOTION_DDOT":0},{"OBJECT_NAME":"SL-14 DEB","OBJECT_ID":"1991-056AY","EPOCH":"2026-03-09T14:44:38.329728","MEAN_MOTION":12.97839923,"ECCENTRICITY":0.0101823,"INCLINATION":82.5919,"RA_OF_ASC_NODE":271.7776,"ARG_OF_PERICENTER":318.6783,"MEAN_ANOMALY":40.6655,"EPHEMERIS_TYPE":0,"CLASSIFICATION_TYPE":"U","NORAD_CAT_ID":45310,"ELEMENT_SET_NO":999,"REV_AT_EPOCH":28585,"BSTAR":0.001051,"MEAN_MOTION_DOT":3.25e-6,"MEAN_MOTION_DDOT":0}]
